SAR-LUPE 2              
1 31797U 07030A   26192.20430725  .00028998  00000+0  45764-3 0  9994
2 31797  98.1051 299.6844 0004527 216.4671 143.6272 15.53480761 60663
SAPPHIRE                
1 39088U 13009C   26192.14375700  .00000057  00000+0  35014-4 0  9996
2 39088  98.4271  11.0319 0011333 171.6435 188.4941 14.35246879700016
PRAETORIAN SDA_602      
1 65565U 25203A   26190.72358580  .00000059  00000+0  41979-4 0  9992
2 65565  81.3037 349.9005 0006916 130.1986 229.9777 13.83887708 41811
PRAETORIAN SDA_603      
1 65566U 25203B   26191.40282445  .00000107  00000+0  85968-4 0  9995
2 65566  81.3043 349.1938 0010629 126.6468 233.5668 13.83962315 41916
PRAETORIAN SDA_604      
1 65567U 25203C   26190.71379939  .00000057  00000+0  41258-4 0  9992
2 65567  81.3059 350.2786 0006403 133.9259 226.2427 13.83049851 41791
PRAETORIAN SDA_605      
1 65568U 25203D   26191.39743748  .00000040  00000+0  26022-4 0  9995
2 65568  81.3025 349.2905 0009213 124.6839 235.5187 13.83199786 41901
PRAETORIAN SDA_606      
1 65569U 25203E   26191.38261164  .00000054  00000+0  38715-4 0  9999
2 65569  81.3062 349.5404 0007053 127.0510 233.1293 13.83199916 41898
PRAETORIAN SDA_607      
1 65570U 25203F   26191.37491045  .00000110  00000+0  88487-4 0  9997
2 65570  81.3046 349.1726 0009841 126.2338 233.9729 13.83758460 41911
PRAETORIAN SDA_608      
1 65571U 25203G   26190.70691854  .00000058  00000+0  41677-4 0  9995
2 65571  81.3014 349.9569 0006901 132.9647 227.2090 13.83819113 41809
PRAETORIAN SDA_609      
1 65572U 25203H   26190.48860244  .00000132  00000+0  10784-3 0  9999
2 65572  81.3052 350.1383 0007773 128.3212 231.8645 13.84211357 41786
PRAETORIAN SDA_610      
1 65573U 25203J   26189.89209177  .00000045  00000+0  29958-4 0  9992
2 65573  81.3015 350.6711 0007648 134.1093 226.0694 13.83769338 41695
PRAETORIAN SDA_611      
1 65574U 25203K   26191.41900625  .00000173  00000+0  14704-3 0  9994
2 65574  81.3016 349.4399 0006522 134.7310 225.4378 13.83311254 41897
PRAETORIAN SDA_612      
1 65575U 25203L   26190.51275722  .00000153  00000+0  12466-3 0  9999
2 65575  81.3034 349.8099 0010172 128.8451 231.3616 13.85040500 41802
PRAETORIAN SDA_613      
1 65576U 25203M   26191.36252331  .00000047  00000+0  32412-4 0  9991
2 65576  81.3007 349.5068 0006648 125.9286 234.2488 13.82767346 41881
PRAETORIAN SDA_614      
1 65577U 25203N   26191.37318863  .00000041  00000+0  25845-4 0  9992
2 65577  81.3020 349.0948 0008110 124.4927 235.6997 13.84778383 41921
PRAETORIAN SDA_615      
1 65578U 25203P   26191.42805305  .00000095  00000+0  74268-4 0  9993
2 65578  81.3028 349.0225 0010010 125.2830 234.9265 13.84438414 41920
PRAETORIAN SDA_616      
1 65579U 25203Q   26191.41891280  .00000099  00000+0  79576-4 0  9991
2 65579  81.3069 349.6004 0006413 132.8372 227.3324 13.83270092 41897
PRAETORIAN SDA_617      
1 65580U 25203R   26191.37016206  .00000053  00000+0  37347-4 0  9995
2 65580  81.3045 349.4744 0008372 124.9712 235.2232 13.83151819 41899
PRAETORIAN SDA_618      
1 65581U 25203S   26191.39466615  .00000109  00000+0  87033-4 0  9990
2 65581  81.3028 348.9840 0010724 128.6386 231.5732 13.84225695 41927
PRAETORIAN SDA_619      
1 65582U 25203T   26190.71758300  .00000080  00000+0  61729-4 0  9993
2 65582  81.3050 349.9347 0009136 127.6660 232.5326 13.83805442 42446
PRAETORIAN SDA_620      
1 65583U 25203U   26192.19701655  .00000076  00000+0  58727-4 0  9998
2 65583  81.3038 348.5946 0008510 121.1105 239.0887 13.83207492 42019
PRAETORIAN SDA_621      
1 65584U 25203V   26191.37014821  .00000052  00000+0  36000-4 0  9994
2 65584  81.3028 349.2640 0008406 120.1388 240.0602 13.83803685 41904
PRAETORIAN SDA_601      
1 65585U 25203W   26191.42372820  .00000132  00000+0  10998-3 0  9993
2 65585  81.3044 349.5379 0006443 135.6361 224.5312 13.83170201 41890
VICTUS HAZE PUMA        
1 69646U 26142A   26192.16595525  .00002275  00000+0  10549-3 0  9991
2 69646  97.4474  89.5161 0025097 280.8883  78.9529 15.20830055  3314
