OBJECT_NAME,OBJECT_ID,EPOCH,MEAN_MOTION,ECCENTRICITY,INCLINATION,RA_OF_ASC_NODE,ARG_OF_PERICENTER,MEAN_ANOMALY,EPHEMERIS_TYPE,CLASSIFICATION_TYPE,NORAD_CAT_ID,ELEMENT_SET_NO,REV_AT_EPOCH,BSTAR,MEAN_MOTION_DOT,MEAN_MOTION_DDOT
SAR-LUPE 2,2007-030A,2026-07-11T04:54:12.146400,15.53480761,.0004527,98.1051,299.6844,216.4671,143.6272,0,U,31797,999,6066,.45764E-3,.28998E-3,0
SAPPHIRE,2013-009C,2026-07-11T03:27:00.604800,14.35246879,.0011333,98.4271,11.0319,171.6435,188.4941,0,U,39088,999,70001,.35014E-4,.57E-6,0
PRAETORIAN SDA_602,2025-203A,2026-07-09T17:21:57.813120,13.83887708,.00069167,81.3037,349.9005,130.1986,229.9777,0,U,65565,999,4181,.41979032E-4,.59E-6,0
PRAETORIAN SDA_603,2025-203B,2026-07-10T09:40:04.032480,13.83962315,.00106297,81.3043,349.1938,126.6468,233.5668,0,U,65566,999,4191,.85968359E-4,.107E-5,0
PRAETORIAN SDA_604,2025-203C,2026-07-09T17:07:52.267296,13.83049851,.00064035,81.3059,350.2786,133.9259,226.2427,0,U,65567,999,4179,.41257519E-4,.57E-6,0
PRAETORIAN SDA_605,2025-203D,2026-07-10T09:32:18.598272,13.83199786,.00092132,81.3025,349.2905,124.6839,235.5187,0,U,65568,999,4190,.26022452E-4,.4E-6,0
PRAETORIAN SDA_606,2025-203E,2026-07-10T09:10:57.645696,13.83199916,.00070539,81.3062,349.5404,127.0510,233.1293,0,U,65569,999,4189,.38715285E-4,.54E-6,0
PRAETORIAN SDA_607,2025-203F,2026-07-10T08:59:52.262880,13.83758460,.00098413,81.3046,349.1726,126.2338,233.9729,0,U,65570,999,4191,.8848747E-4,.11E-5,0
PRAETORIAN SDA_608,2025-203G,2026-07-09T16:57:57.761856,13.83819113,.00069019,81.3014,349.9569,132.9647,227.2090,0,U,65571,999,4180,.4167664E-4,.58E-6,0
PRAETORIAN SDA_609,2025-203H,2026-07-09T11:43:35.250816,13.84211357,.00077733,81.3052,350.1383,128.3212,231.8645,0,U,65572,999,4178,.10783886E-3,.132E-5,0
PRAETORIAN SDA_610,2025-203J,2026-07-08T21:24:36.728928,13.83769338,.00076481,81.3015,350.6711,134.1093,226.0694,0,U,65573,999,4169,.29957645E-4,.45E-6,0
PRAETORIAN SDA_611,2025-203K,2026-07-10T10:03:22.140000,13.83311254,.00065229,81.3016,349.4399,134.7310,225.4378,0,U,65574,999,4189,.14703879E-3,.173E-5,0
PRAETORIAN SDA_612,2025-203L,2026-07-09T12:18:22.223808,13.85040500,.00101724,81.3034,349.8099,128.8451,231.3616,0,U,65575,999,4180,.12465924E-3,.153E-5,0
PRAETORIAN SDA_613,2025-203M,2026-07-10T08:42:02.013984,13.82767346,.00066487,81.3007,349.5068,125.9286,234.2488,0,U,65576,999,4188,.32412008E-4,.47E-6,0
PRAETORIAN SDA_614,2025-203N,2026-07-10T08:57:23.497632,13.84778383,.00081101,81.3020,349.0948,124.4927,235.6997,0,U,65577,999,4192,.25844905E-4,.41E-6,0
PRAETORIAN SDA_615,2025-203P,2026-07-10T10:16:23.783520,13.84438414,.00100107,81.3028,349.0225,125.2830,234.9265,0,U,65578,999,4192,.7426751E-4,.95E-6,0
PRAETORIAN SDA_616,2025-203Q,2026-07-10T10:03:14.065920,13.83270092,.00064133,81.3069,349.6004,132.8372,227.3324,0,U,65579,999,4189,.79576228E-4,.99E-6,0
PRAETORIAN SDA_617,2025-203R,2026-07-10T08:53:02.001984,13.83151819,.00083723,81.3045,349.4744,124.9712,235.2232,0,U,65580,999,4189,.37347399E-4,.53E-6,0
PRAETORIAN SDA_618,2025-203S,2026-07-10T09:28:19.155360,13.84225695,.00107247,81.3028,348.9840,128.6386,231.5732,0,U,65581,999,4192,.87033392E-4,.109E-5,0
PRAETORIAN SDA_619,2025-203T,2026-07-09T17:13:19.171200,13.83805442,.00091365,81.3050,349.9347,127.6660,232.5326,0,U,65582,999,4244,.61728623E-4,.8E-6,0
PRAETORIAN SDA_620,2025-203U,2026-07-11T04:43:42.229920,13.83207492,.000851,81.3038,348.5946,121.1105,239.0887,0,U,65583,999,4201,.58727E-4,.76E-6,0
PRAETORIAN SDA_621,2025-203V,2026-07-10T08:53:00.805344,13.83803685,.0008406,81.3028,349.2640,120.1388,240.0602,0,U,65584,999,4190,.360004E-4,.52E-6,0
PRAETORIAN SDA_601,2025-203W,2026-07-10T10:10:10.116480,13.83170201,.00064433,81.3044,349.5379,135.6361,224.5312,0,U,65585,999,4189,.10997799E-3,.132E-5,0
VICTUS HAZE PUMA,2026-142A,2026-07-11T03:58:58.533600,15.20830055,.0025097,97.4474,89.5161,280.8883,78.9529,0,U,69646,999,331,.10549E-3,.2275E-4,0
